{
  "type": "FeatureCollection",
  "features": [
    {
      "type": "Feature",
      "properties": {
        "norad_id": 66358,
        "name": "STARLINK-35807",
        "group": "last-30-days",
        "lat": 52.63642853700701,
        "lon": 56.17417143814163,
        "alt_km": 385.73320871696797,
        "timestamp": "2025-12-04T15:47:52.867674+00:00",
        "meta_object_name": "STARLINK-35807",
        "meta_object_id": "2025-254L",
        "meta_epoch": "2025-12-04T08:00:01.999872",
        "meta_mean_motion": 15.59337453,
        "meta_eccentricity": 0.00013451,
        "meta_inclination": 53.1592,
        "meta_ra_of_asc_node": 316.8385,
        "meta_arg_of_pericenter": 71.3539,
        "meta_mean_anomaly": 1.2009,
        "meta_ephemeris_type": 0,
        "meta_classification_type": "U",
        "meta_norad_cat_id": 66358,
        "meta_element_set_no": 999,
        "meta_rev_at_epoch": 557,
        "meta_bstar": -0.028426366,
        "meta_mean_motion_dot": -0.02002548,
        "meta_mean_motion_ddot": 0,
        "tle_line1": "1 66358U 25254L   25338.33335648 -.02002548  00000+0 -28426-1 0  9997",
        "tle_line2": "2 66358  53.1592 316.8385 0001345  71.3539   1.2009 15.59337453  5574"
      },
      "geometry": {
        "type": "Point",
        "coordinates": [
          56.17417143814163,
          52.63642853700701
        ]
      }
    },
    {
      "type": "Feature",
      "properties": {
        "norad_id": 66359,
        "name": "STARLINK-35805",
        "group": "last-30-days",
        "lat": 52.304976563944145,
        "lon": 59.275177514395246,
        "alt_km": 385.86790129300607,
        "timestamp": "2025-12-04T15:47:52.867685+00:00",
        "meta_object_name": "STARLINK-35805",
        "meta_object_id": "2025-254M",
        "meta_epoch": "2025-12-04T08:00:01.999872",
        "meta_mean_motion": 15.59341331,
        "meta_eccentricity": 0.00011957,
        "meta_inclination": 53.1593,
        "meta_ra_of_asc_node": 316.8352,
        "meta_arg_of_pericenter": 75.4657,
        "meta_mean_anomaly": 359.0052,
        "meta_ephemeris_type": 0,
        "meta_classification_type": "U",
        "meta_norad_cat_id": 66359,
        "meta_element_set_no": 999,
        "meta_rev_at_epoch": 554,
        "meta_bstar": -0.028521599,
        "meta_mean_motion_dot": -0.02008572,
        "meta_mean_motion_ddot": 0,
        "tle_line1": "1 66359U 25254M   25338.33335648 -.02008572  00000+0 -28522-1 0  9998",
        "tle_line2": "2 66359  53.1593 316.8352 0001195  75.4657 359.0052 15.59341331  5548"
      },
      "geometry": {
        "type": "Point",
        "coordinates": [
          59.275177514395246,
          52.304976563944145
        ]
      }
    },
    {
      "type": "Feature",
      "properties": {
        "norad_id": 66360,
        "name": "STARLINK-35823",
        "group": "last-30-days",
        "lat": 51.40343091638176,
        "lon": 65.31396209050077,
        "alt_km": 386.0075417755397,
        "timestamp": "2025-12-04T15:47:52.867696+00:00",
        "meta_object_name": "STARLINK-35823",
        "meta_object_id": "2025-254N",
        "meta_epoch": "2025-12-04T08:00:01.999872",
        "meta_mean_motion": 15.59341926,
        "meta_eccentricity": 0.0001213,
        "meta_inclination": 53.159,
        "meta_ra_of_asc_node": 316.8263,
        "meta_arg_of_pericenter": 73.8734,
        "meta_mean_anomaly": 4.4311,
        "meta_ephemeris_type": 0,
        "meta_classification_type": "U",
        "meta_norad_cat_id": 66360,
        "meta_element_set_no": 999,
        "meta_rev_at_epoch": 557,
        "meta_bstar": -0.028530889,
        "meta_mean_motion_dot": -0.02009197,
        "meta_mean_motion_ddot": 0,
        "tle_line1": "1 66360U 25254N   25338.33335648 -.02009197  00000+0 -28531-1 0  9994",
        "tle_line2": "2 66360  53.1590 316.8263 0001213  73.8734   4.4311 15.59341926  5579"
      },
      "geometry": {
        "type": "Point",
        "coordinates": [
          65.31396209050077,
          51.40343091638176
        ]
      }
    },
    {
      "type": "Feature",
      "properties": {
        "norad_id": 66361,
        "name": "STARLINK-35813",
        "group": "last-30-days",
        "lat": 51.893000856938805,
        "lon": 62.32557774197582,
        "alt_km": 385.9236242467623,
        "timestamp": "2025-12-04T15:47:52.867706+00:00",
        "meta_object_name": "STARLINK-35813",
        "meta_object_id": "2025-254P",
        "meta_epoch": "2025-12-04T08:00:01.999872",
        "meta_mean_motion": 15.59342121,
        "meta_eccentricity": 0.00012172,
        "meta_inclination": 53.1592,
        "meta_ra_of_asc_node": 316.8313,
        "meta_arg_of_pericenter": 74.4652,
        "meta_mean_anomaly": 1.9221,
        "meta_ephemeris_type": 0,
        "meta_classification_type": "U",
        "meta_norad_cat_id": 66361,
        "meta_element_set_no": 999,
        "meta_rev_at_epoch": 557,
        "meta_bstar": -0.028532881,
        "meta_mean_motion_dot": -0.02009336,
        "meta_mean_motion_ddot": 0,
        "tle_line1": "1 66361U 25254P   25338.33335648 -.02009336  00000+0 -28533-1 0  9992",
        "tle_line2": "2 66361  53.1592 316.8313 0001217  74.4652   1.9221 15.59342121  5578"
      },
      "geometry": {
        "type": "Point",
        "coordinates": [
          62.32557774197582,
          51.893000856938805
        ]
      }
    },
    {
      "type": "Feature",
      "properties": {
        "norad_id": 66362,
        "name": "STARLINK-35822",
        "group": "last-30-days",
        "lat": 50.20426089133258,
        "lon": 71.0834719160467,
        "alt_km": 386.0694607351397,
        "timestamp": "2025-12-04T15:47:52.867716+00:00",
        "meta_object_name": "STARLINK-35822",
        "meta_object_id": "2025-254Q",
        "meta_epoch": "2025-12-04T08:00:01.999872",
        "meta_mean_motion": 15.5932611,
        "meta_eccentricity": 0.00014671,
        "meta_inclination": 53.1591,
        "meta_ra_of_asc_node": 316.819,
        "meta_arg_of_pericenter": 71.4156,
        "meta_mean_anomaly": 10.731,
        "meta_ephemeris_type": 0,
        "meta_classification_type": "U",
        "meta_norad_cat_id": 66362,
        "meta_element_set_no": 999,
        "meta_rev_at_epoch": 557,
        "meta_bstar": -0.028247394,
        "meta_mean_motion_dot": -0.01990829,
        "meta_mean_motion_ddot": 0,
        "tle_line1": "1 66362U 25254Q   25338.33335648 -.01990829  00000+0 -28247-1 0  9990",
        "tle_line2": "2 66362  53.1591 316.8190 0001467  71.4156  10.7310 15.59326110  5571"
      },
      "geometry": {
        "type": "Point",
        "coordinates": [
          71.0834719160467,
          50.20426089133258
        ]
      }
    },
    {
      "type": "Feature",
      "properties": {
        "norad_id": 66363,
        "name": "STARLINK-35806",
        "group": "last-30-days",
        "lat": 50.83937663495594,
        "lon": 68.23585504496498,
        "alt_km": 386.0232910237564,
        "timestamp": "2025-12-04T15:47:52.867727+00:00",
        "meta_object_name": "STARLINK-35806",
        "meta_object_id": "2025-254R",
        "meta_epoch": "2025-12-04T08:00:01.999872",
        "meta_mean_motion": 15.5933707,
        "meta_eccentricity": 0.00013619,
        "meta_inclination": 53.1589,
        "meta_ra_of_asc_node": 316.8228,
        "meta_arg_of_pericenter": 71.1018,
        "meta_mean_anomaly": 9.1207,
        "meta_ephemeris_type": 0,
        "meta_classification_type": "U",
        "meta_norad_cat_id": 66363,
        "meta_element_set_no": 999,
        "meta_rev_at_epoch": 554,
        "meta_bstar": -0.028418182,
        "meta_mean_motion_dot": -0.0200203,
        "meta_mean_motion_ddot": 0,
        "tle_line1": "1 66363U 25254R   25338.33335648 -.02002030  00000+0 -28418-1 0  9990",
        "tle_line2": "2 66363  53.1589 316.8228 0001361  71.1018   9.1207 15.59337070  5549"
      },
      "geometry": {
        "type": "Point",
        "coordinates": [
          68.23585504496498,
          50.83937663495594
        ]
      }
    },
    {
      "type": "Feature",
      "properties": {
        "norad_id": 66364,
        "name": "STARLINK-35797",
        "group": "last-30-days",
        "lat": 49.50144127059562,
        "lon": 73.85133135232859,
        "alt_km": 386.2825621752718,
        "timestamp": "2025-12-04T15:47:52.867737+00:00",
        "meta_object_name": "STARLINK-35797",
        "meta_object_id": "2025-254S",
        "meta_epoch": "2025-12-04T08:00:01.999872",
        "meta_mean_motion": 15.59337975,
        "meta_eccentricity": 0.00013122,
        "meta_inclination": 53.1594,
        "meta_ra_of_asc_node": 316.8146,
        "meta_arg_of_pericenter": 69.6051,
        "meta_mean_anomaly": 14.4514,
        "meta_ephemeris_type": 0,
        "meta_classification_type": "U",
        "meta_norad_cat_id": 66364,
        "meta_element_set_no": 999,
        "meta_rev_at_epoch": 557,
        "meta_bstar": -0.028438695,
        "meta_mean_motion_dot": -0.02003319,
        "meta_mean_motion_ddot": 0,
        "tle_line1": "1 66364U 25254S   25338.33335648 -.02003319  00000+0 -28439-1 0  9995",
        "tle_line2": "2 66364  53.1594 316.8146 0001312  69.6051  14.4514 15.59337975  5577"
      },
      "geometry": {
        "type": "Point",
        "coordinates": [
          73.85133135232859,
          49.50144127059562
        ]
      }
    }
  ]
}